NORAD_CAT_ID,OBJECT_NAME,OBJECT_TYPE,EPOCH,MEAN_MOTION,ECCENTRICITY,INCLINATION,RA_OF_ASC_NODE,ARG_OF_PERICENTER,MEAN_ANOMALY,BSTAR,MEAN_MOTION_DOT,MEAN_MOTION_DDOT,TLE_LINE0,TLE_LINE1,TLE_LINE2,SEMIMAJOR_AXIS,PERIOD,APOGEE,PERIGEE,DECAYED
53540.0,STARLINK-4486,PAYLOAD,2022-09-20 22:00:01,15.73242681,0.0003194,53.2178,355.7564,7.0137,13.3061,-0.00057406,-0.00080593,0.0,0 STARLINK-4486,1 53540U 22101P   22263.91668981 -.00080593  00000-0 -57406-3 0  9998,2 53540  53.2178 355.7564 0003194   7.0137  13.3061 15.73242681  5070,6727.773,91.531,351.787,347.49,0.0
53540.0,STARLINK-4486,PAYLOAD,2022-09-21 14:00:01,15.73233346,0.0003373999999999,53.2179,352.4587,10.1124,188.0063,-0.00027379,-0.00038938,0.0,0 STARLINK-4486,1 53540U 22101P   22264.58334491 -.00038938  00000-0 -27379-3 0  9990,2 53540  53.2179 352.4587 0003374  10.1124 188.0063 15.73233346  5183,6727.8,91.531,351.935,347.395,0.0
53540.0,STARLINK-4486,PAYLOAD,2022-09-21 22:00:00,15.73225008,0.000329,53.2179,350.8081,6.0625,281.0062,-0.00043455,-0.00061252,0.0,0 STARLINK-4486,1 53540U 22101P   22264.91667824 -.00061252  00000-0 -43455-3 0  9994,2 53540  53.2179 350.8081 0003290   6.0625 281.0062 15.73225008  1300,6727.824000000001,91.532,351.902,347.475,0.0
53540.0,STARLINK-4486,PAYLOAD,2022-09-22 14:00:01,15.73178003,0.0003569,53.2183,347.5105,6.2882,98.6258,0.00037173,0.00051835,0.0,0 STARLINK-4486,1 53540U 22101P   22265.58334491  .00051835  00000-0  37173-3 0  9993,2 53540  53.2183 347.5105 0003569   6.2882  98.6258 15.73178003  5340,6727.958000000001,91.534,352.224,347.422,0.0
53540.0,STARLINK-4486,PAYLOAD,2022-09-22 22:00:00,15.73274586,0.0003567,53.2176,345.8545,8.8662,184.9743,-0.0015247,-0.00210125,0.0,0 STARLINK-4486,1 53540U 22101P   22265.91667824 -.00210125  00000-0 -15247-2 0  9997,2 53540  53.2176 345.8545 0003567   8.8662 184.9743 15.73274586  1306,6727.683000000001,91.529,351.94699999999995,347.148,0.0
53540.0,STARLINK-4486,PAYLOAD,2022-09-23 06:00:00,15.7310662,0.0003393,53.2174,344.1999,10.1451,272.6281,0.0010734,0.001522,0.0,0 STARLINK-4486,1 53540U 22101P   22266.25001157  .00152200  00000-0  10734-2 0  9999,2 53540  53.2174 344.1999 0003393  10.1451 272.6281 15.73106620  5442,6728.161,91.539,352.309,347.744,0.0
53540.0,STARLINK-4486,PAYLOAD,2022-09-23 14:00:01,15.73205925,0.0003543999999999,53.2175,342.5505,8.7829,2.8726,-2.2665e-05,-3.805e-05,0.0,0 STARLINK-4486,1 53540U 22101P   22266.58334491 -.00003805  00000-0 -22665-4 0  9991,2 53540  53.2175 342.5505 0003544   8.7829   2.8726 15.73205925  5498,6727.878000000002,91.533,352.12800000000016,347.3590000000001,0.0
53540.0,STARLINK-4486,PAYLOAD,2022-09-23 22:00:00,15.73240808,0.0003448,53.2174,340.907,7.3562,93.3059,-0.00014481,-0.00020939,0.0,0 STARLINK-4486,1 53540U 22101P   22266.91667824 -.00020939  00000-0 -14481-3 0  9990,2 53540  53.2174 340.9070 0003448   7.3562  93.3059 15.73240808  5558,6727.779,91.531,351.964,347.324,0.0
53540.0,STARLINK-4486,PAYLOAD,2022-09-24 06:00:00,15.73165488,0.0002873,53.217,339.2495,344.98,204.7022,-0.0048233999999999,-0.00628636,0.0,0 STARLINK-4486,1 53540U 22101P   22267.25001157 -.00628636  00000-0 -48234-2 0  9999,2 53540  53.2170 339.2495 0002873 344.9800 204.7022 15.73165488  5606,6727.994000000002,91.535,351.792,347.926,0.0
53540.0,STARLINK-4486,PAYLOAD,2022-09-24 14:00:01,15.72872444,0.0003802,53.2177,337.5974,300.113,338.2277,-0.0087226,-0.01084123,0.0,0 STARLINK-4486,1 53540U 22101P   22267.58335648 -.01084123  00000-0 -87226-2 0  9992,2 53540  53.2177 337.5974 0003802 300.1130 338.2277 15.72872444  1303,6728.829000000002,91.552,353.25300000000016,348.136,0.0
53540.0,STARLINK-4486,PAYLOAD,2022-09-24 22:00:00,15.72093679,0.0006551,53.2176,335.9448,274.9994,91.3339,-0.0087307,-0.0105452,0.0,0 STARLINK-4486,1 53540U 22101P   22267.91667824 -.01054520  00000-0 -87307-2 0  9991,2 53540  53.2176 335.9448 0006551 274.9994  91.3339 15.72093679  1301,6731.051,91.598,357.326,348.50699999999995,0.0
53540.0,STARLINK-4486,PAYLOAD,2022-09-25 14:00:01,15.7057979,0.0005232,53.2175,332.6507,270.818,268.8728,-0.0093952,-0.0106222,0.0,0 STARLINK-4486,1 53540U 22101P   22268.58334491 -.01062220  00000-0 -93952-2 0  9995,2 53540  53.2175 332.6507 0005232 270.8180 268.8728 15.70579790  1301,6735.376,91.686,360.765,353.717,0.0
53540.0,STARLINK-4486,PAYLOAD,2022-09-25 22:00:01,15.69805641,0.0003137,53.2175,331.0038,267.8324,357.2412,-0.0094532,-0.01036143,0.0,0 STARLINK-4486,1 53540U 22101P   22268.91668981 -.01036143  00000-0 -94532-2 0  9996,2 53540  53.2175 331.0038 0003137 267.8324 357.2412 15.69805641  5864,6737.59,91.731,361.569,357.341,0.0
53540.0,STARLINK-4486,PAYLOAD,2022-09-26 10:00:00,15.68670449,0.0002529999999999,53.2173,328.5415,289.926,281.3357,-0.010001,-0.01044299,0.0,0 STARLINK-4486,1 53540U 22101P   22269.41667824 -.01044299  00000-0 -10001-1 0  9996,2 53540  53.2173 328.5415 0002530 289.9260 281.3357 15.68670449  5941,6740.84,91.797,364.411,361.0,0.0
53540.0,STARLINK-4486,PAYLOAD,2022-09-26 14:00:01,15.68302646,0.0001701,53.2176,327.7207,315.4339,117.4517,-0.0103349999999999,-0.01060632,0.0,0 STARLINK-4486,1 53540U 22101P   22269.58334491 -.01060632  00000-0 -10335-1 0  9994,2 53540  53.2176 327.7207 0001701 315.4339 117.4517 15.68302646  1309,6741.894,91.819,364.906,362.612,0.0
53540.0,STARLINK-4486,PAYLOAD,2022-09-26 22:00:00,15.67539154,8.3e-05,53.2175,326.0806,49.1488,106.3127,-0.0106,-0.01054468,0.0,0 STARLINK-4486,1 53540U 22101P   22269.91667824 -.01054468  00000-0 -10600-1 0  9995,2 53540  53.2175 326.0806 0000830  49.1488 106.3127 15.67539154  1302,6744.083000000001,91.864,366.508,365.388,0.0
53540.0,STARLINK-4486,PAYLOAD,2022-09-27 06:00:00,15.66805404,0.0001219,53.2174,324.4455,82.8469,154.2592,-0.011283,-0.01085681,0.0,0 STARLINK-4486,1 53540U 22101P   22270.25001157 -.01085681  00000-0 -11283-1 0  9994,2 53540  53.2174 324.4455 0001219  82.8469 154.2592 15.66805404  6078,6746.188,91.907,368.876,367.231,0.0
53540.0,STARLINK-4486,PAYLOAD,2022-09-27 14:00:01,15.66016727,0.0001072999999999,53.2174,322.8074,73.7915,244.0785,-0.0111989999999999,-0.01047782,0.0,0 STARLINK-4486,1 53540U 22101P   22270.58334491 -.01047782  00000-0 -11199-1 0  9996,2 53540  53.2174 322.8074 0001073  73.7915 244.0785 15.66016727  1305,6748.453,91.953,371.042,369.594,0.0
53540.0,STARLINK-4486,PAYLOAD,2022-09-27 22:00:01,15.65257659,0.0001028,53.2174,321.1713,68.4835,329.2882,-0.011558,-0.01048592,0.0,0 STARLINK-4486,1 53540U 22101P   22270.91668981 -.01048592  00000-0 -11558-1 0  9996,2 53540  53.2174 321.1713 0001028  68.4835 329.2882 15.65257659  1303,6750.635,91.998,373.194,371.806,0.0
53540.0,STARLINK-4486,PAYLOAD,2022-09-28 14:00:01,15.63734541,0.0001339,53.2173,317.9107,58.6215,136.0177,-0.012183,-0.01040907,0.0,0 STARLINK-4486,1 53540U 22101P   22271.58334491 -.01040907  00000-0 -12183-1 0  9993,2 53540  53.2173 317.9107 0001339  58.6215 136.0177 15.63734541  1309,6755.018,92.087,377.787,375.978,0.0
53540.0,STARLINK-4486,PAYLOAD,2022-09-28 22:00:00,15.6297883,0.0001167999999999,53.2175,316.2804,64.6896,207.0468,-0.012639,-0.01063472,0.0,0 STARLINK-4486,1 53540U 22101P   22271.91667824 -.01063472  00000-0 -12639-1 0  9997,2 53540  53.2175 316.2804 0001168  64.6896 207.0468 15.62978830  1301,6757.195,92.132,379.849,378.271,0.0
53540.0,STARLINK-4486,PAYLOAD,2022-09-29 06:00:00,15.62223203,0.0001103,53.2171,314.6566,61.7016,286.2157,-0.013092,-0.01068785,0.0,0 STARLINK-4486,1 53540U 22101P   22272.25001157 -.01068785  00000-0 -13092-1 0  9992,2 53540  53.2171 314.6566 0001103  61.7016 286.2157 15.62223203  6389,6759.374,92.176,381.984,380.49300000000005,0.0
53540.0,STARLINK-4486,PAYLOAD,2022-09-29 14:00:01,15.61447317,0.0001252999999999,53.217,313.034,54.3143,8.8815,-0.0131729999999999,-0.01045522,0.0,0 STARLINK-4486,1 53540U 22101P   22272.58334491 -.01045522  00000-0 -13173-1 0  9992,2 53540  53.2170 313.0340 0001253  54.3143   8.8815 15.61447317  1305,6761.613,92.222,384.325,382.63,0.0
53540.0,STARLINK-4486,PAYLOAD,2022-09-29 22:00:00,15.60699023,0.0001267,53.2174,311.4055,59.5506,78.0022,-0.013771,-0.01060251,0.0,0 STARLINK-4486,1 53540U 22101P   22272.91667824 -.01060251  00000-0 -13771-1 0  9998,2 53540  53.2174 311.4055 0001267  59.5506  78.0022 15.60699023  1300,6763.774,92.266,386.496,384.782,0.0
53540.0,STARLINK-4486,PAYLOAD,2022-09-30 06:00:02,15.59947008,0.0001296999999999,53.2171,309.7870000000001,65.2546,145.8045,-0.0143259999999999,-0.01070426,0.0,0 STARLINK-4486,1 53540U 22101P   22273.25002315 -.01070426  00000-0 -14326-1 0  9996,2 53540  53.2171 309.7870 0001297  65.2546 145.8045 15.59947008  6549,6765.946999999999,92.311,388.69,386.935,0.0
53540.0,STARLINK-4486,PAYLOAD,2022-09-30 14:00:01,15.59169306,0.0001247,53.2166,308.1697,59.4923,224.0431,-0.014371,-0.01044657,0.0,0 STARLINK-4486,1 53540U 22101P   22273.58334491 -.01044657  00000-0 -14371-1 0  9992,2 53540  53.2166 308.1697 0001247  59.4923 224.0431 15.59169306  1307,6768.196999999999,92.357,390.906,389.218,0.0
53540.0,STARLINK-4486,PAYLOAD,2022-09-30 22:00:00,15.58420577,0.0001059,53.2172,306.5473,64.6115,290.5432,-0.015031,-0.01060294,0.0,0 STARLINK-4486,1 53540U 22101P   22273.91667824 -.01060294  00000-0 -15031-1 0  9997,2 53540  53.2172 306.5473 0001059  64.6115 290.5432 15.58420577  1308,6770.365,92.401,392.947,391.513,0.0
53540.0,STARLINK-4486,PAYLOAD,2022-10-01 06:00:00,15.57663458,0.0001291999999999,53.2174,304.9326,51.6807,14.1811,-0.0155199999999999,-0.0106356,0.0,0 STARLINK-4486,1 53540U 22101P   22274.25001157 -.01063560  00000-0 -15520-1 0  9998,2 53540  53.2174 304.9326 0001292  51.6807  14.1811 15.57663458  6708,6772.558000000001,92.446,395.298,393.548,0.0
53540.0,STARLINK-4486,PAYLOAD,2022-10-01 14:00:01,15.56897435,0.0001383,53.2167,303.322,58.6532,77.0054,-0.015804,-0.01053232,0.0,0 STARLINK-4486,1 53540U 22101P   22274.58334491 -.01053232  00000-0 -15804-1 0  9994,2 53540  53.2167 303.3220 0001383  58.6532  77.0054 15.56897435  1300,6774.78,92.492,397.582,395.708,0.0
